NORAD_CAT_ID,OBJECT_NAME,OBJECT_TYPE,EPOCH,MEAN_MOTION,ECCENTRICITY,INCLINATION,RA_OF_ASC_NODE,ARG_OF_PERICENTER,MEAN_ANOMALY,BSTAR,MEAN_MOTION_DOT,MEAN_MOTION_DDOT,TLE_LINE0,TLE_LINE1,TLE_LINE2,SEMIMAJOR_AXIS,PERIOD,APOGEE,PERIGEE,DECAYED
50823.0,STARLINK-3334,PAYLOAD,2024-03-18 11:42:59,15.08834519,0.0001528,53.2182,166.7209,96.0547,264.062,1.4172e-05,-6.2e-07,0.0,0 STARLINK-3334,1 50823U 22001W   24078.48819302 -.00000062  00000-0  14172-4 0  9997,2 50823  53.2182 166.7209 0001528  96.0547 264.0620 15.08834519122817,6917.897,95.438,540.819,538.705,0.0
50823.0,STARLINK-3334,PAYLOAD,2024-03-18 14:53:45,15.08837952,0.0001654,53.2184,166.1235,102.8463,257.2714,4.0688e-05,3.6e-06,0.0,0 STARLINK-3334,1 50823U 22001W   24078.62066984  .00000360  00000-0  40688-4 0  9994,2 50823  53.2184 166.1235 0001654 102.8463 257.2714 15.08837952121557,6917.887,95.438,540.896,538.607,0.0
50823.0,STARLINK-3334,PAYLOAD,2024-03-19 11:33:45,15.08856232,0.0001732,53.2172,162.2627,105.0332,255.0852,0.00012161,1.649e-05,0.0,0 STARLINK-3334,1 50823U 22001W   24079.48177637  .00001649  00000-0  12161-3 0  9992,2 50823  53.2172 162.2627 0001732 105.0332 255.0852 15.08856232121688,6917.831,95.437,540.894,538.498,0.0
50823.0,STARLINK-3334,PAYLOAD,2024-03-19 13:09:08,15.08861835,0.0001539,53.2182,161.9615,95.7888,264.3279,0.00026193,3.886e-05,0.0,0 STARLINK-3334,1 50823U 22001W   24079.54800934  .00003886  00000-0  26193-3 0  9997,2 50823  53.2182 161.9615 0001539  95.7888 264.3279 15.08861835122972,6917.814,95.436,540.743,538.614,0.0
50823.0,STARLINK-3334,PAYLOAD,2024-03-20 09:49:11,15.08833494,0.0001361,53.2181,158.0958,113.5052,246.6083,-3.2451e-05,-8.04e-06,0.0,0 STARLINK-3334,1 50823U 22001W   24080.40915705 -.00000804  00000-0 -32451-4 0  9991,2 50823  53.2181 158.0958 0001361 113.5052 246.6083 15.08833494123105,6917.9,95.438,540.707,538.824,0.0
50823.0,STARLINK-3334,PAYLOAD,2024-03-20 11:24:34,15.08830494,0.0001454,53.2162,157.8009,94.6406,265.4753,-6.2797e-06,-3.88e-06,0.0,0 STARLINK-3334,1 50823U 22001W   24080.47540049 -.00000388  00000-0 -62797-5 0  9997,2 50823  53.2162 157.8009 0001454  94.6406 265.4753 15.08830494121831,6917.909,95.438,540.78,538.769,0.0
50823.0,STARLINK-3334,PAYLOAD,2024-03-20 22:32:17,15.08825959,0.0001518,53.2172,155.7209,92.5565,267.5601,-7.8948e-05,-1.544e-05,0.0,0 STARLINK-3334,1 50823U 22001W   24080.93908890 -.00001544  00000-0 -78948-4 0  9999,2 50823  53.2172 155.7209 0001518  92.5565 267.5601 15.08825959121908,6917.923,95.438,540.838,538.738,0.0
50823.0,STARLINK-3334,PAYLOAD,2024-03-21 11:15:21,15.08848547,0.0001432,53.2176,153.3386,95.9459,264.1696,-6.1754e-05,-1.271e-05,0.0,0 STARLINK-3334,1 50823U 22001W   24081.46899765 -.00001271  00000-0 -61754-4 0  9992,2 50823  53.2176 153.3386 0001432  95.9459 264.1696 15.08848547123262,6917.854,95.437,540.71,538.729,0.0
50823.0,STARLINK-3334,PAYLOAD,2024-03-22 11:06:07,15.08869621,0.0001598,53.2166,148.8807,100.4873,259.63,0.00076545,0.00011925,0.0,0 STARLINK-3334,1 50823U 22001W   24082.46258849  .00011925  00000-0  76545-3 0  9993,2 50823  53.2166 148.8807 0001598 100.4873 259.6300 15.08869621123417,6917.79,95.436,540.76,538.549,0.0
50823.0,STARLINK-3334,PAYLOAD,2024-03-23 04:35:23,15.08840686,0.0001736,53.217,145.6058,105.9584,254.1599,0.00020385,2.958e-05,0.0,0 STARLINK-3334,1 50823U 22001W   24083.19124096  .00002958  00000-0  20385-3 0  9997,2 50823  53.2170 145.6058 0001736 105.9584 254.1599 15.08840686123520,6917.878,95.438,540.944,538.542,0.0
50823.0,STARLINK-3334,PAYLOAD,2024-03-23 20:29:14,15.08845111,0.0001502,53.2165,142.6371,93.8156,266.3008,-5.3629e-05,-1.142e-05,0.0,0 STARLINK-3334,1 50823U 22001W   24083.85363771 -.00001142  00000-0 -53629-4 0  9999,2 50823  53.2165 142.6371 0001502  93.8156 266.3008 15.08845111122347,6917.865,95.437,540.769,538.691,0.0
50823.0,STARLINK-3334,PAYLOAD,2024-03-24 04:26:08,15.08858546,0.0001527,53.2146,141.1418,46.9044,313.2076,-0.00015009,-2.677e-05,0.0,0 STARLINK-3334,1 50823U 22001W   24084.18482470 -.00002677  00000-0 -15009-3 0  9997,2 50823  53.2146 141.1418 0001527  46.9044 313.2076 15.08858546123674,6917.824,95.436,540.745,538.632,0.0
50823.0,STARLINK-3334,PAYLOAD,2024-03-24 10:47:40,15.08878215,0.0001653,53.2165,139.9607,86.177,273.9411,0.00018808,2.71e-05,0.0,0 STARLINK-3334,1 50823U 22001W   24084.44977079  .00002710  00000-0  18808-3 0  9996,2 50823  53.2165 139.9607 0001653  86.1770 273.9411 15.08878215123717,6917.764,95.435,540.772,538.485,0.0
50823.0,STARLINK-3334,PAYLOAD,2024-03-24 20:20:00,15.08854012,0.0002193,53.2163,138.1728,81.1384,278.9856,-7.3579e-06,-4.05e-06,0.0,0 STARLINK-3334,1 50823U 22001W   24084.84722429 -.00000405  00000-0 -73579-5 0  9996,2 50823  53.2163 138.1728 0002193  81.1384 278.9856 15.08854012123779,6917.838,95.437,541.22,538.185,0.0
50823.0,STARLINK-3334,PAYLOAD,2024-03-25 02:41:33,15.08844857,0.0002477,53.2164,136.9858,86.1709,273.9566,0.00020332,2.949e-05,0.0,0 STARLINK-3334,1 50823U 22001W   24085.11219417  .00002949  00000-0  20332-3 0  9995,2 50823  53.2164 136.9858 0002477  86.1709 273.9566 15.08844857123815,6917.866,95.437,541.444,538.017,0.0
50823.0,STARLINK-3334,PAYLOAD,2024-03-25 20:10:48,15.08827485,0.0001417,53.2156,133.714,85.8027,274.3127,-0.00020972,-3.623e-05,0.0,0 STARLINK-3334,1 50823U 22001W   24085.84083832 -.00003623  00000-0 -20972-3 0  9997,2 50823  53.2156 133.7140 0001417  85.8027 274.3127 15.08827485123925,6917.919,95.438,540.764,538.803,0.0
50823.0,STARLINK-3334,PAYLOAD,2024-03-26 10:29:17,15.08823821,0.0001736,53.2163,131.0381,96.7207,263.3983,-0.00031013,-5.218e-05,0.0,0 STARLINK-3334,1 50823U 22001W   24086.43701034 -.00005218  00000-0 -31013-3 0  9994,2 50823  53.2163 131.0381 0001736  96.7207 263.3983 15.08823821122732,6917.93,95.439,540.996,538.594,0.0
50823.0,STARLINK-3334,PAYLOAD,2024-03-26 20:01:36,15.08831401,0.0001637,53.2168,129.2531,89.3669,270.7511,-0.00014039,-2.521e-05,0.0,0 STARLINK-3334,1 50823U 22001W   24086.83444996 -.00002521  00000-0 -14039-3 0  9992,2 50823  53.2168 129.2531 0001637  89.3669 270.7511 15.08831401122791,6917.907,95.438,540.904,538.639,0.0
50823.0,STARLINK-3334,PAYLOAD,2024-03-27 11:55:28,15.08843613,0.0001514,53.2154,126.2806,99.0944,261.022,0.00056472,8.712e-05,0.0,0 STARLINK-3334,1 50823U 22001W   24087.49685418  .00008712  00000-0  56472-3 0  9994,2 50823  53.2154 126.2806 0001514  99.0944 261.0220 15.08843613124178,6917.869,95.437,540.782,538.687,0.0
50823.0,STARLINK-3334,PAYLOAD,2024-03-27 19:52:23,15.08846581,0.0001426,53.2149,124.7914,96.8281,263.2873,0.00051761,7.961e-05,0.0,0 STARLINK-3334,1 50823U 22001W   24087.82805373  .00007961  00000-0  51761-3 0  9996,2 50823  53.2149 124.7914 0001426  96.8281 263.2873 15.08846581122944,6917.86,95.437,540.712,538.739,0.0
50823.0,STARLINK-3334,PAYLOAD,2024-03-28 11:46:14,15.0887081,0.0001481,53.2145,121.8164,99.7795,260.3364,0.00077404,0.00012063,0.0,0 STARLINK-3334,1 50823U 22001W   24088.49044297  .00012063  00000-0  77404-3 0  9991,2 50823  53.2145 121.8164 0001481  99.7795 260.3364 15.08870810123045,6917.786,95.436,540.676,538.627,0.0
50823.0,STARLINK-3334,PAYLOAD,2024-03-28 19:43:09,15.08859634,0.0001836,53.2143,120.3289,106.1867,253.9327,0.00031053,4.66e-05,0.0,0 STARLINK-3334,1 50823U 22001W   24088.82164202  .00004660  00000-0  31053-3 0  9991,2 50823  53.2143 120.3289 0001836 106.1867 253.9327 15.08859634124377,6917.82,95.436,540.955,538.415,0.0
50823.0,STARLINK-3334,PAYLOAD,2024-03-29 08:26:14,15.08856877,0.0001738,53.2162,117.9519,102.4325,257.6862,0.0002458,3.628e-05,0.0,0 STARLINK-3334,1 50823U 22001W   24089.35155770  .00003628  00000-0  24580-3 0  9990,2 50823  53.2162 117.9519 0001738 102.4325 257.6862 15.08856877124455,6917.829,95.436,540.896,538.491,0.0
50823.0,STARLINK-3334,PAYLOAD,2024-03-30 05:06:15,15.08847082,0.000141,53.216,114.0839,98.1301,261.9851,0.00028043,4.179e-05,0.0,0 STARLINK-3334,1 50823U 22001W   24090.21267855  .00004179  00000-0  28043-3 0  9995,2 50823  53.2160 114.0839 0001410  98.1301 261.9851 15.08847082124586,6917.859,95.437,540.699,538.748,0.0
50823.0,STARLINK-3334,PAYLOAD,2024-03-30 08:17:01,15.08845189,0.0001416,53.2149,113.491,94.2786,265.8368,0.0002499,3.692e-05,0.0,0 STARLINK-3334,1 50823U 22001W   24090.34515993  .00003692  00000-0  24990-3 0  9994,2 50823  53.2149 113.4910 0001416  94.2786 265.8368 15.08845189123329,6917.865,95.437,540.709,538.75,0.0
50823.0,STARLINK-3334,PAYLOAD,2024-03-31 04:57:01,15.08874552,0.0001376,53.2161,109.6249,107.5497,252.5645,0.0009063,0.00014179,0.0,0 STARLINK-3334,1 50823U 22001W   24091.20626298  .00014179  00000-0  90630-3 0  9997,2 50823  53.2161 109.6249 0001376 107.5497 252.5645 15.08874552124730,6917.775,95.435,540.592,538.688,0.0
50823.0,STARLINK-3334,PAYLOAD,2024-03-31 08:07:47,15.08841989,0.0001394,53.2161,109.0302,86.7522,273.363,-0.00013796,-2.483e-05,0.0,0 STARLINK-3334,1 50823U 22001W   24091.33874476 -.00002483  00000-0 -13796-3 0  9999,2 50823  53.2161 109.0302 0001394  86.7522 273.3630 15.08841989124756,6917.874,95.437,540.704,538.775,0.0
50823.0,STARLINK-3334,PAYLOAD,2024-03-31 17:40:06,15.08826095,0.0001378,53.2154,107.2466,82.7887,277.3262,-0.00030818,-5.187e-05,0.0,0 STARLINK-3334,1 50823U 22001W   24091.73619007 -.00005187  00000-0 -30818-3 0  9998,2 50823  53.2154 107.2466 0001378  82.7887 277.3262 15.08826095124814,6917.923,95.438,540.741,538.835,0.0
50823.0,STARLINK-3334,PAYLOAD,2024-04-01 11:09:22,15.08827561,0.0001521,53.2166,103.9765,93.2565,266.8601,-8.9496e-05,-1.712e-05,0.0,0 STARLINK-3334,1 50823U 22001W   24092.46484257 -.00001712  00000-0 -89496-4 0  9993,2 50823  53.2166 103.9765 0001521  93.2565 266.8601 15.08827561123641,6917.918,95.438,540.836,538.731,0.0
50823.0,STARLINK-3334,PAYLOAD,2024-04-01 17:30:54,15.08845107,0.0001719,53.2184,102.79,102.8091,257.3093,2.9973e-05,1.89e-06,0.0,0 STARLINK-3334,1 50823U 22001W   24092.72979595  .00000189  00000-0  29973-4 0  9995,2 50823  53.2184 102.7900 0001719 102.8091 257.3093 15.08845107124961,6917.865,95.437,540.919,538.541,0.0
